{
  "type": "FeatureCollection",
  "features": [
    {
      "type": "Feature",
      "properties": {
        "norad_id": 41772,
        "name": "SKYSAT-C5",
        "group": "resource",
        "lat": -37.730100621557824,
        "lon": -159.42103630130399,
        "alt_km": 466.23986661951585,
        "timestamp": "2025-12-08T03:50:06.662315+00:00",
        "meta_object_name": "SKYSAT-C5",
        "meta_object_id": "2016-058C",
        "meta_epoch": "2025-12-07T01:51:53.662752",
        "meta_mean_motion": 15.35504726,
        "meta_eccentricity": 0.00027517,
        "meta_inclination": 97.0761,
        "meta_ra_of_asc_node": 25.0549,
        "meta_arg_of_pericenter": 118.8514,
        "meta_mean_anomaly": 241.3007,
        "meta_ephemeris_type": 0,
        "meta_classification_type": "U",
        "meta_norad_cat_id": 41772,
        "meta_element_set_no": 999,
        "meta_rev_at_epoch": 51429,
        "meta_bstar": 0.00045247458,
        "meta_mean_motion_dot": 0.00015551,
        "meta_mean_motion_ddot": 0,
        "tle_line1": "1 41772U 16058C   25341.07770443  .00015551  00000+0  45247-3 0  9999",
        "tle_line2": "2 41772  97.0761  25.0549 0002751 118.8514 241.3007 15.35504726514297"
      },
      "geometry": {
        "type": "Point",
        "coordinates": [
          -159.42103630130399,
          -37.730100621557824
        ]
      }
    },
    {
      "type": "Feature",
      "properties": {
        "norad_id": 41773,
        "name": "SKYSAT-C2",
        "group": "resource",
        "lat": -15.630899904671567,
        "lon": -175.09925206993086,
        "alt_km": 462.3917850259413,
        "timestamp": "2025-12-08T03:50:06.662325+00:00",
        "meta_object_name": "SKYSAT-C2",
        "meta_object_id": "2016-058D",
        "meta_epoch": "2025-12-07T00:25:34.018176",
        "meta_mean_motion": 15.37079918,
        "meta_eccentricity": 0.00047823,
        "meta_inclination": 97.0359,
        "meta_ra_of_asc_node": 5.7876,
        "meta_arg_of_pericenter": 49.0966,
        "meta_mean_anomaly": 311.0693,
        "meta_ephemeris_type": 0,
        "meta_classification_type": "U",
        "meta_norad_cat_id": 41773,
        "meta_element_set_no": 999,
        "meta_rev_at_epoch": 51548,
        "meta_bstar": 0.00047915809,
        "meta_mean_motion_dot": 0.00017335,
        "meta_mean_motion_ddot": 0,
        "tle_line1": "1 41773U 16058D   25341.01775484  .00017335  00000+0  47916-3 0  9991",
        "tle_line2": "2 41773  97.0359   5.7876 0004782  49.0966 311.0693 15.37079918515481"
      },
      "geometry": {
        "type": "Point",
        "coordinates": [
          -175.09925206993086,
          -15.630899904671567
        ]
      }
    },
    {
      "type": "Feature",
      "properties": {
        "norad_id": 41774,
        "name": "SKYSAT-C3",
        "group": "resource",
        "lat": -82.68616804983003,
        "lon": 124.74111134485904,
        "alt_km": 442.23165210050865,
        "timestamp": "2025-12-08T03:50:06.662335+00:00",
        "meta_object_name": "SKYSAT-C3",
        "meta_object_id": "2016-058E",
        "meta_epoch": "2025-12-07T01:47:41.064576",
        "meta_mean_motion": 15.44107425,
        "meta_eccentricity": 0.00015102,
        "meta_inclination": 96.9299,
        "meta_ra_of_asc_node": 15.0858,
        "meta_arg_of_pericenter": 103.5824,
        "meta_mean_anomaly": 256.5594,
        "meta_ephemeris_type": 0,
        "meta_classification_type": "U",
        "meta_norad_cat_id": 41774,
        "meta_element_set_no": 999,
        "meta_rev_at_epoch": 51638,
        "meta_bstar": 0.00057873208,
        "meta_mean_motion_dot": 0.00026445,
        "meta_mean_motion_ddot": 0,
        "tle_line1": "1 41774U 16058E   25341.07478084  .00026445  00000+0  57873-3 0  9999",
        "tle_line2": "2 41774  96.9299  15.0858 0001510 103.5824 256.5594 15.44107425516388"
      },
      "geometry": {
        "type": "Point",
        "coordinates": [
          124.74111134485904,
          -82.68616804983003
        ]
      }
    },
    {
      "type": "Feature",
      "properties": {
        "norad_id": 41785,
        "name": "ALSAT 1B",
        "group": "resource",
        "lat": -53.90354756439859,
        "lon": 163.33730505009686,
        "alt_km": 664.9916558622663,
        "timestamp": "2025-12-08T03:50:06.662345+00:00",
        "meta_object_name": "ALSAT 1B",
        "meta_object_id": "2016-059C",
        "meta_epoch": "2025-12-07T07:11:51.235584",
        "meta_mean_motion": 14.72067005,
        "meta_eccentricity": 0.00105587,
        "meta_inclination": 97.7816,
        "meta_ra_of_asc_node": 353.3244,
        "meta_arg_of_pericenter": 119.1656,
        "meta_mean_anomaly": 241.0609,
        "meta_ephemeris_type": 0,
        "meta_classification_type": "U",
        "meta_norad_cat_id": 41785,
        "meta_element_set_no": 999,
        "meta_rev_at_epoch": 49234,
        "meta_bstar": 0.00014824117,
        "meta_mean_motion_dot": 8.85e-06,
        "meta_mean_motion_ddot": 0,
        "tle_line1": "1 41785U 16059C   25341.29989856  .00000885  00000+0  14824-3 0  9999",
        "tle_line2": "2 41785  97.7816 353.3244 0010558 119.1656 241.0609 14.72067005492343"
      },
      "geometry": {
        "type": "Point",
        "coordinates": [
          163.33730505009686,
          -53.90354756439859
        ]
      }
    },
    {
      "type": "Feature",
      "properties": {
        "norad_id": 41787,
        "name": "PATHFINDER 1",
        "group": "resource",
        "lat": 30.628241018730197,
        "lon": -19.517435590088873,
        "alt_km": 658.7008967226011,
        "timestamp": "2025-12-08T03:50:06.662356+00:00",
        "meta_object_name": "PATHFINDER 1",
        "meta_object_id": "2016-059E",
        "meta_epoch": "2025-12-07T06:25:06.500640",
        "meta_mean_motion": 14.67306494,
        "meta_eccentricity": 0.00300387,
        "meta_inclination": 97.8138,
        "meta_ra_of_asc_node": 344.295,
        "meta_arg_of_pericenter": 97.8185,
        "meta_mean_anomaly": 262.6432,
        "meta_ephemeris_type": 0,
        "meta_classification_type": "U",
        "meta_norad_cat_id": 41787,
        "meta_element_set_no": 999,
        "meta_rev_at_epoch": 49156,
        "meta_bstar": 0.0002660337,
        "meta_mean_motion_dot": 1.465e-05,
        "meta_mean_motion_ddot": 0,
        "tle_line1": "1 41787U 16059E   25341.26743635  .00001465  00000+0  26603-3 0  9994",
        "tle_line2": "2 41787  97.8138 344.2950 0030038  97.8185 262.6432 14.67306494491568"
      },
      "geometry": {
        "type": "Point",
        "coordinates": [
          -19.517435590088873,
          30.628241018730197
        ]
      }
    },
    {
      "type": "Feature",
      "properties": {
        "norad_id": 41790,
        "name": "SCATSAT 1",
        "group": "resource",
        "lat": -13.140466773928138,
        "lon": -143.1433746753285,
        "alt_km": 612.315336156893,
        "timestamp": "2025-12-08T03:50:06.662365+00:00",
        "meta_object_name": "SCATSAT 1",
        "meta_object_id": "2016-059H",
        "meta_epoch": "2025-12-07T02:36:41.031936",
        "meta_mean_motion": 14.78907408,
        "meta_eccentricity": 0.00560074,
        "meta_inclination": 98.1469,
        "meta_ra_of_asc_node": 37.709,
        "meta_arg_of_pericenter": 145.8081,
        "meta_mean_anomaly": 214.6757,
        "meta_ephemeris_type": 0,
        "meta_classification_type": "U",
        "meta_norad_cat_id": 41790,
        "meta_element_set_no": 999,
        "meta_rev_at_epoch": 7319,
        "meta_bstar": 0.00040716964,
        "meta_mean_motion_dot": 3.025e-05,
        "meta_mean_motion_ddot": 0,
        "tle_line1": "1 41790U 16059H   25341.10880824  .00003025  00000+0  40717-3 0  9999",
        "tle_line2": "2 41790  98.1469  37.7090 0056007 145.8081 214.6757 14.78907408 73191"
      },
      "geometry": {
        "type": "Point",
        "coordinates": [
          -143.1433746753285,
          -13.140466773928138
        ]
      }
    },
    {
      "type": "Feature",
      "properties": {
        "norad_id": 41875,
        "name": "GOKTURK 1A",
        "group": "resource",
        "lat": -3.2475015864408388,
        "lon": 54.120486773398916,
        "alt_km": 687.8423647523332,
        "timestamp": "2025-12-08T03:50:06.662376+00:00",
        "meta_object_name": "GOKTURK 1A",
        "meta_object_id": "2016-073A",
        "meta_epoch": "2025-12-07T05:39:30.614400",
        "meta_mean_motion": 14.62769909,
        "meta_eccentricity": 0.00012417,
        "meta_inclination": 98.1437,
        "meta_ra_of_asc_node": 233.6745,
        "meta_arg_of_pericenter": 82.8677,
        "meta_mean_anomaly": 277.2665,
        "meta_ephemeris_type": 0,
        "meta_classification_type": "U",
        "meta_norad_cat_id": 41875,
        "meta_element_set_no": 999,
        "meta_rev_at_epoch": 48076,
        "meta_bstar": 0.00021110313,
        "meta_mean_motion_dot": 1.03e-05,
        "meta_mean_motion_ddot": 0,
        "tle_line1": "1 41875U 16073A   25341.23577100  .00001030  00000+0  21110-3 0  9993",
        "tle_line2": "2 41875  98.1437 233.6745 0001241  82.8677 277.2665 14.62769909480768"
      },
      "geometry": {
        "type": "Point",
        "coordinates": [
          54.120486773398916,
          -3.2475015864408388
        ]
      }
    }
  ]
}